<?xml version="1.0" encoding="UTF-8"?>
<gpx version="1.1" creator="RUNPOD" xmlns="http://www.topografix.com/GPX/1/1">
  <trk>
    <name>RUNPOD RUN_009</name>
    <trkseg>
      <trkpt lat="10.143406" lon="76.354628">
        <time>2026-09-07T14:32:45Z</time>
      </trkpt>
      <trkpt lat="10.143407" lon="76.354629">
        <time>2026-09-07T14:32:47Z</time>
      </trkpt>
      <trkpt lat="10.143408" lon="76.354630">
        <time>2026-09-07T14:32:49Z</time>
      </trkpt>
      <trkpt lat="10.143408" lon="76.354631">
        <time>2026-09-07T14:32:51Z</time>
      </trkpt>
      <trkpt lat="10.143409" lon="76.354632">
        <time>2026-09-07T14:32:53Z</time>
      </trkpt>
      <trkpt lat="10.143409" lon="76.354633">
        <time>2026-09-07T14:32:55Z</time>
      </trkpt>
      <trkpt lat="10.143410" lon="76.354634">
        <time>2026-09-07T14:32:57Z</time>
      </trkpt>
      <trkpt lat="10.143410" lon="76.354634">
        <time>2026-09-07T14:32:59Z</time>
      </trkpt>
      <trkpt lat="10.143411" lon="76.354635">
        <time>2026-09-07T14:33:01Z</time>
      </trkpt>
      <trkpt lat="10.143411" lon="76.354636">
        <time>2026-09-07T14:33:03Z</time>
      </trkpt>
      <trkpt lat="10.143412" lon="76.354637">
        <time>2026-09-07T14:33:05Z</time>
      </trkpt>
      <trkpt lat="10.143412" lon="76.354637">
        <time>2026-09-07T14:33:07Z</time>
      </trkpt>
      <trkpt lat="10.143413" lon="76.354638">
        <time>2026-09-07T14:33:09Z</time>
      </trkpt>
      <trkpt lat="10.143414" lon="76.354639">
        <time>2026-09-07T14:33:11Z</time>
      </trkpt>
      <trkpt lat="10.143414" lon="76.354640">
        <time>2026-09-07T14:33:13Z</time>
      </trkpt>
      <trkpt lat="10.143427" lon="76.354646">
        <time>2026-09-07T14:33:15Z</time>
      </trkpt>
      <trkpt lat="10.143439" lon="76.354651">
        <time>2026-09-07T14:33:17Z</time>
      </trkpt>
      <trkpt lat="10.143444" lon="76.354661">
        <time>2026-09-07T14:33:19Z</time>
      </trkpt>
      <trkpt lat="10.143443" lon="76.354661">
        <time>2026-09-07T14:33:21Z</time>
      </trkpt>
    </trkseg>
  </trk>
</gpx>
