<?xml version="1.0" encoding="UTF-8"?>
<gpx version="1.1" creator="RUNPOD" xmlns="http://www.topografix.com/GPX/1/1">
  <trk>
    <name>RUNPOD RUN_002</name>
    <trkseg>
      <trkpt lat="10.143591" lon="76.354676">
        <time>2026-09-08T15:35:36Z</time>
      </trkpt>
      <trkpt lat="10.143591" lon="76.354676">
        <time>2026-09-08T15:35:39Z</time>
      </trkpt>
      <trkpt lat="10.143591" lon="76.354676">
        <time>2026-09-08T15:35:41Z</time>
      </trkpt>
      <trkpt lat="10.143591" lon="76.354676">
        <time>2026-09-08T15:35:43Z</time>
      </trkpt>
    </trkseg>
  </trk>
</gpx>
